NORAD_CAT_ID,OBJECT_NAME,OBJECT_TYPE,EPOCH,MEAN_MOTION,ECCENTRICITY,INCLINATION,RA_OF_ASC_NODE,ARG_OF_PERICENTER,MEAN_ANOMALY,BSTAR,MEAN_MOTION_DOT,MEAN_MOTION_DDOT,TLE_LINE0,TLE_LINE1,TLE_LINE2,SEMIMAJOR_AXIS,PERIOD,APOGEE,PERIGEE,DECAYED
54783.0,STARLINK-5439,PAYLOAD,2023-11-20 22:10:31,15.08837087,0.0001589,53.2169,198.9617,95.593,264.5243,4.6607e-05,4.54e-06,0.0,0 STARLINK-5439,1 54783U 22175AB  23324.92398139  .00000454  00000-0  46607-4 0  9992,2 54783  53.2169 198.9617 0001589  95.5930 264.5243 15.08837087 53359,6917.889,95.438,540.854,538.655,0.0
54783.0,STARLINK-5439,PAYLOAD,2023-11-21 01:21:17,15.08841213,0.0001605,53.2166,198.366,94.2232,265.8944,7.4614e-05,9e-06,0.0,0 STARLINK-5439,1 54783U 22175AB  23325.05645802  .00000900  00000-0  74614-4 0  9994,2 54783  53.2166 198.3660 0001605  94.2232 265.8944 15.08841213 51219,6917.877,95.437,540.852,538.631,0.0
54783.0,STARLINK-5439,PAYLOAD,2023-11-21 09:18:11,15.08906622,0.0001324,53.2176,196.8761,82.8967,277.2175,-0.00097977,-0.00015875,0.0,0 STARLINK-5439,1 54783U 22175AB  23325.38763017 -.00015875  00000-0 -97977-3 0  9994,2 54783  53.2176 196.8761 0001324  82.8967 277.2175 15.08906622 51265,6917.677,95.433,540.458,538.626,0.0
54783.0,STARLINK-5439,PAYLOAD,2023-11-21 20:25:55,15.08845885,0.0001477,53.2162,194.7971,91.7632,268.3529,6.2273e-05,7.03e-06,0.0,0 STARLINK-5439,1 54783U 22175AB  23325.85133559  .00000703  00000-0  62273-4 0  9992,2 54783  53.2162 194.7971 0001477  91.7632 268.3529 15.08845885 53491,6917.862,95.437,540.749,538.706,0.0
54783.0,STARLINK-5439,PAYLOAD,2023-11-22 02:47:27,15.08854416,0.0001558,53.2158,193.6084,91.1335,268.9835,0.00019772,2.861e-05,0.0,0 STARLINK-5439,1 54783U 22175AB  23326.11629105  .00002861  00000-0  19772-3 0  9991,2 54783  53.2158 193.6084 0001558  91.1335 268.9835 15.08854416 51374,6917.836,95.437,540.779,538.624,0.0
54783.0,STARLINK-5439,PAYLOAD,2023-11-22 18:41:19,15.08839712,0.0001459,53.2145,190.636,104.4927,255.6227,1.266e-05,-8.6e-07,0.0,0 STARLINK-5439,1 54783U 22175AB  23326.77869644 -.00000086  00000-0  12660-4 0  9995,2 54783  53.2145 190.6360 0001459 104.4927 255.6227 15.08839712 51470,6917.881,95.438,540.756,538.737,0.0
54783.0,STARLINK-5439,PAYLOAD,2023-11-22 20:16:42,15.08844792,0.0001292,53.2161,190.3384,67.6996,292.4133,8.2197e-05,1.021e-05,0.0,0 STARLINK-5439,1 54783U 22175AB  23326.84493560  .00001021  00000-0  82197-4 0  9994,2 54783  53.2161 190.3384 0001292  67.6996 292.4133 15.08844792 53642,6917.866,95.437,540.625,538.837,0.0
54783.0,STARLINK-5439,PAYLOAD,2023-11-22 21:52:05,15.08852823,0.0001519,53.216,190.0378,106.9827,253.1332,0.00026,3.854e-05,0.0,0 STARLINK-5439,1 54783U 22175AB  23326.91117036  .00003854  00000-0  26000-3 0  9999,2 54783  53.2160 190.0378 0001519 106.9827 253.1332 15.08852823 51493,6917.841,95.437,540.757,538.655,0.0
54783.0,STARLINK-5439,PAYLOAD,2023-11-23 20:07:30,15.08828866,0.0001271,53.2158,185.8748,95.8769,264.2368,-9.9935e-05,-1.877e-05,0.0,0 STARLINK-5439,1 54783U 22175AB  23327.83854374 -.00001877  00000-0 -99935-4 0  9997,2 54783  53.2158 185.8748 0001271  95.8769 264.2368 15.08828866 51637,6917.914,95.438,540.659,538.9,0.0
54783.0,STARLINK-5439,PAYLOAD,2023-11-23 21:42:53,15.08829972,0.0001394,53.2154,185.5796,77.708,282.4068,-0.00017372,-3.051e-05,0.0,0 STARLINK-5439,1 54783U 22175AB  23327.90478468 -.00003051  00000-0 -17372-3 0  9991,2 54783  53.2154 185.5796 0001394  77.7080 282.4068 15.08829972 53803,6917.911,95.438,540.74,538.812,0.0
54783.0,STARLINK-5439,PAYLOAD,2023-11-24 19:58:16,15.08851892,0.0001463,53.2156,181.4124,89.4834,270.6326,0.00015911,2.246e-05,0.0,0 STARLINK-5439,1 54783U 22175AB  23328.83213049  .00002246  00000-0  15911-3 0  9996,2 54783  53.2156 181.4124 0001463  89.4834 270.6326 15.08851892 51786,6917.844,95.437,540.721,538.697,0.0
54783.0,STARLINK-5439,PAYLOAD,2023-11-24 21:33:38,15.08856378,0.0001508,53.2161,181.1157,98.5638,261.5525,0.00020666,3.004e-05,0.0,0 STARLINK-5439,1 54783U 22175AB  23328.89836731  .00003004  00000-0  20666-3 0  9997,2 54783  53.2161 181.1157 0001508  98.5638 261.5525 15.08856378 53953,6917.83,95.437,540.739,538.652,0.0
54783.0,STARLINK-5439,PAYLOAD,2023-11-25 21:24:26,15.08843669,0.000148,53.2157,176.6555,77.2147,282.901,0.00021724,3.171e-05,0.0,0 STARLINK-5439,1 54783U 22175AB  23329.89197908  .00003171  00000-0  21724-3 0  9995,2 54783  53.2157 176.6555 0001480  77.2147 282.9010 15.08843669 54100,6917.869,95.437,540.758,538.71,0.0
54783.0,STARLINK-5439,PAYLOAD,2023-11-25 22:59:50,15.08844454,0.0001472,53.2154,176.3582,77.9566,282.1591,0.00022572,3.307e-05,0.0,0 STARLINK-5439,1 54783U 22175AB  23329.95821925  .00003307  00000-0  22572-3 0  9998,2 54783  53.2154 176.3582 0001472  77.9566 282.1591 15.08844454 54117,6917.867,95.437,540.75,538.713,0.0
54783.0,STARLINK-5439,PAYLOAD,2023-11-26 21:15:14,15.08835087,0.0001528,53.2163,172.1961,88.9139,271.2028,-0.0001494,-2.665e-05,0.0,0 STARLINK-5439,1 54783U 22175AB  23330.88558227 -.00002665  00000-0 -14940-3 0  9992,2 54783  53.2163 172.1961 0001528  88.9139 271.2028 15.08835087 54253,6917.895,95.438,540.817,538.703,0.0
54783.0,STARLINK-5439,PAYLOAD,2023-11-27 13:09:06,15.08832374,0.0001473,53.2161,169.2245,89.2602,270.8559,5.1121e-05,5.26e-06,0.0,0 STARLINK-5439,1 54783U 22175AB  23331.54798774  .00000526  00000-0  51121-4 0  9994,2 54783  53.2161 169.2245 0001473  89.2602 270.8559 15.08832374 54352,6917.904,95.438,540.788,538.75,0.0
54783.0,STARLINK-5439,PAYLOAD,2023-11-27 17:55:15,15.08834349,0.0001469,53.216,168.3336,90.6817,269.4343,7.599e-05,9.21e-06,0.0,0 STARLINK-5439,1 54783U 22175AB  23331.74670752  .00000921  00000-0  75990-4 0  9990,2 54783  53.2160 168.3336 0001469  90.6817 269.4343 15.08834349 54383,6917.898,95.438,540.779,538.746,0.0
54783.0,STARLINK-5439,PAYLOAD,2023-11-28 12:59:53,15.08839972,0.0001488,53.2173,164.766,76.5806,283.5352,0.00015567,2.19e-05,0.0,0 STARLINK-5439,1 54783U 22175AB  23332.54158593  .00002190  00000-0  15567-3 0  9996,2 54783  53.2173 164.7660 0001488  76.5806 283.5352 15.08839972 54507,6917.88,95.438,540.775,538.716,0.0
54783.0,STARLINK-5439,PAYLOAD,2023-11-28 19:21:25,15.08842263,0.0001463,53.2171,163.5765,76.1035,284.0119,0.00017201,2.451e-05,0.0,0 STARLINK-5439,1 54783U 22175AB  23332.80654483  .00002451  00000-0  17201-3 0  9991,2 54783  53.2171 163.5765 0001463  76.1035 284.0119 15.08842263 52389,6917.873,95.437,540.751,538.726,0.0
54783.0,STARLINK-5439,PAYLOAD,2023-11-29 12:50:40,15.08843316,0.0001489,53.2172,160.3054,80.9537,279.1624,0.00011302,1.511e-05,0.0,0 STARLINK-5439,1 54783U 22175AB  23333.53518602  .00001511  00000-0  11302-3 0  9996,2 54783  53.2172 160.3054 0001489  80.9537 279.1624 15.08843316 54652,6917.87,95.437,540.765,538.705,0.0
54783.0,STARLINK-5439,PAYLOAD,2023-11-30 12:41:27,15.08842034,0.0001554,53.218,155.8449,107.6438,252.4724,4.6645e-05,4.54e-06,0.0,0 STARLINK-5439,1 54783U 22175AB  23334.52878616  .00000454  00000-0  46645-4 0  9994,2 54783  53.2180 155.8449 0001554 107.6438 252.4724 15.08842034 52646,6917.874,95.437,540.814,538.664,0.0
54783.0,STARLINK-5439,PAYLOAD,2023-12-01 18:53:46,15.08846039,0.0001596,53.2177,150.1945,105.9574,254.1594,2.6966e-05,1.41e-06,0.0,0 STARLINK-5439,1 54783U 22175AB  23335.78734314  .00000141  00000-0  26966-4 0  9996,2 54783  53.2177 150.1945 0001596 105.9574 254.1594 15.08846039 52833,6917.862,95.437,540.831,538.623,0.0
54783.0,STARLINK-5439,PAYLOAD,2023-12-02 12:23:00,15.08845695,0.0001327,53.2177,146.9214,97.0705,263.0438,5.8158e-05,6.38e-06,0.0,0 STARLINK-5439,1 54783U 22175AB  23336.51598323  .00000638  00000-0  58158-4 0  9995,2 54783  53.2177 146.9214 0001327  97.0705 263.0438 15.08845695 55100,6917.863,95.437,540.646,538.81,0.0
54783.0,STARLINK-5439,PAYLOAD,2023-12-02 17:09:10,15.08839847,0.0001325,53.2177,146.0313,98.9764,261.1378,6.513e-05,7.49e-06,0.0,0 STARLINK-5439,1 54783U 22175AB  23336.71470581  .00000749  00000-0  65130-4 0  9993,2 54783  53.2177 146.0313 0001325  98.9764 261.1378 15.08839847 52970,6917.881,95.438,540.662,538.829,0.0
54783.0,STARLINK-5439,PAYLOAD,2023-12-03 10:38:26,15.08831973,0.0001317,53.2174,142.7588,92.9614,267.1529,-2.1217e-05,-6.25e-06,0.0,0 STARLINK-5439,1 54783U 22175AB  23337.44335714 -.00000625  00000-0 -21217-4 0  9995,2 54783  53.2174 142.7588 0001317  92.9614 267.1529 15.08831973 53082,6917.905,95.438,540.681,538.859,0.0
54783.0,STARLINK-5439,PAYLOAD,2023-12-04 10:29:13,15.08836106,0.0001257,53.2169,138.2965,94.3935,265.7201,-0.00010046,-1.886e-05,0.0,0 STARLINK-5439,1 54783U 22175AB  23338.43696355 -.00001886  00000-0 -10046-3 0  9993,2 54783  53.2169 138.2965 0001257  94.3935 265.7201 15.08836106 55390,6917.892,95.438,540.627,538.888,0.0
54783.0,STARLINK-5439,PAYLOAD,2023-12-05 10:20:00,15.08836332,0.0001244,53.217,133.8372,90.9484,269.1651,0.00016672,2.366e-05,0.0,0 STARLINK-5439,1 54783U 22175AB  23339.43055778  .00002366  00000-0  16672-3 0  9995,2 54783  53.2170 133.8372 0001244  90.9484 269.1651 15.08836332 53387,6917.892,95.438,540.617,538.896,0.0
54783.0,STARLINK-5439,PAYLOAD,2023-12-05 19:52:18,15.08845083,0.0001288,53.217,132.0534,90.9916,269.1224,0.00022378,3.276e-05,0.0,0 STARLINK-5439,1 54783U 22175AB  23339.82799045  .00003276  00000-0  22378-3 0  9991,2 54783  53.2170 132.0534 0001288  90.9916 269.1224 15.08845083 53442,6917.865,95.437,540.621,538.839,0.0
54783.0,STARLINK-5439,PAYLOAD,2023-12-06 10:10:47,15.08843321,0.0001793,53.218,129.3839,72.959,287.1598,7.8511e-05,9.62e-06,0.0,0 STARLINK-5439,1 54783U 22175AB  23340.42415513  .00000962  00000-0  78511-4 0  9994,2 54783  53.2180 129.3839 0001793  72.9590 287.1598 15.08843321 53536,6917.87,95.437,540.976,538.495,0.0
54783.0,STARLINK-5439,PAYLOAD,2023-12-07 13:12:20,15.08843287,0.0001841,53.2143,124.3183,115.1542,244.9641,-2.4669e-05,-6.81e-06,0.0,0 STARLINK-5439,1 54783U 22175AB  23341.55023399 -.00000681  00000-0 -24669-4 0  9991,2 54783  53.2143 124.3183 0001841 115.1542 244.9641 15.08843287 55862,6917.87,95.437,541.009,538.462,0.0
